TDRS 3                  
1 19548U 88091B   24345.36904615 -.00000293  00000+0  00000+0 0  9998
2 19548  13.0270 344.7029 0040371 337.3431 201.5818  1.00273795119831
FLTSATCOM 8 (USA 46)    
1 20253U 89077A   24345.41368921 -.00000361  00000+0  00000+0 0  9994
2 20253  12.5805 354.4844 0006500 270.3797  89.3757  1.00266053255007
SKYNET 4C               
1 20776U 90079A   24345.17091142  .00000132  00000+0  00000+0 0  9994
2 20776  13.5179 353.5846 0003901 262.5907 278.1134  1.00272652125333
TDRS 5                  
1 21639U 91054B   24345.05101642 -.00000295  00000+0  00000+0 0  9992
2 21639  14.1393 357.8244 0006693 260.5957 137.0090  1.00273214122167
TDRS 6                  
1 22314U 93003B   24345.48967775 -.00000290  00000+0  00000+0 0  9998
2 22314  14.1689   1.1255 0008917 190.6937  18.3146  1.00275221116851
UFO 2 (USA 95)          
1 22787U 93056A   24345.25674237  .00000133  00000+0  00000+0 0  9998
2 22787  11.7099   6.4749 0004189 252.9850 301.1366  1.00275368112992
USA 99 (MILSTAR-1 1)    
1 22988U 94009A   24345.14641111 -.00000192  00000+0  00000+0 0  9999
2 22988  16.7822  33.6079 0003336 225.3674 143.1305  1.00272373 27404
UFO 4 (USA 108)         
1 23467U 95003A   24345.35084126 -.00000013  00000+0  00000+0 0  9999
2 23467   9.6929  14.9474 0004457 222.3977 140.8360  1.00269635109408
TDRS 7                  
1 23613U 95035B   24345.03819817 -.00000196  00000+0  00000+0 0  9997
2 23613  13.6087 352.0037 0021130  71.3454 114.3501  1.00277501107694
USA 115 (MILSTAR-1 2)   
1 23712U 95060A   24345.32965230 -.00000014  00000+0  00000+0 0  9997
2 23712  13.8669   7.7716 0004381 267.5182 162.9701  1.00274275 27334
INMARSAT 3-F1           
1 23839U 96020A   24344.60188332 -.00000310  00000+0  00000+0 0  9993
2 23839   9.4373  51.4810 0008133 193.0343 160.7760  0.99985328105017
INMARSAT 3-F2           
1 24307U 96053A   24345.47827191 -.00000122  00000+0  00000+0 0  9990
2 24307   8.5939  59.3394 0005400 191.8004 350.6759  1.00002105103386
INMARSAT 3-F3           
1 24674U 96070A   24345.28372941  .00000038  00000+0  00000+0 0  9998
2 24674   9.1114  54.7258 0008560 200.1622 168.0657  0.99984044102377
AMC-3                   
1 24936U 97050A   24345.22138902 -.00000247  00000+0  00000+0 0  9992
2 24936   6.7825  70.2860 0003174 190.5947 186.2613  1.00270531 46889
USA 134                 
1 25019U 97065A   24345.46274017 -.00000053  00000+0  00000+0 0  9990
2 25019  12.1201  25.6687 0005037 249.4767 218.7010  1.00274054 27409
INMARSAT 3-F5           
1 25153U 98006B   24345.15362219 -.00000278  00000+0  00000+0 0  9992
2 25153   8.4444  58.5290 0005177 205.6583 176.5533  1.00270521 98342
ASTRA 2A                
1 25462U 98050A   24345.39007125  .00000082  00000+0  00000+0 0  9994
2 25462   5.6927  75.4207 0003327 184.3358  17.4677  1.00269648 40789
SKYNET 4E               
1 25639U 99009B   24345.30701341 -.00000027  00000+0  00000+0 0  9997
2 25639  11.7330  12.1340 0003502 252.1725 284.5228  1.00269946 45622
ABS-6                   
1 25924U 99053A   24345.63590101 -.00000103  00000+0  00000+0 0  9994
2 25924   0.0019 359.9632 0002721 264.7115 203.1343  1.00270359 92294
UFO 10 (USA 146)        
1 25967U 99063A   24345.43313576 -.00000180  00000+0  00000+0 0  9994
2 25967   9.5817  29.8919 0007088 233.5912 309.0791  1.00266873 91795
GALAXY 11 (G-11)        
1 26038U 99071A   24345.55222870  .00000062  00000+0  00000+0 0  9990
2 26038   5.3308  77.2162 0001896 236.8301  42.1757  0.99035138 91523
USA 148                 
1 26052U 00001A   24345.38349214  .00000047  00000+0  00000+0 0  9997
2 26052  10.9972  36.4924 0003788 236.7995 124.7308  1.00274614 27414
ASIASTAR                
1 26107U 00016A   24345.17480017 -.00000321  00000+0  00000+0 0  9994
2 26107   7.8259  63.8493 0005320 198.5924 344.8903  1.00271658 90369
USA 149 (DSP 20)        
1 26356U 00024A   24345.37581854  .00000106  00000+0  00000+0 0  9992
2 26356  12.7494  15.6386 0000791 321.5014  73.2617  1.00288732 27368
TDRS 8                  
1 26388U 00034A   24345.37583781  .00000104  00000+0  00000+0 0  9997
2 26388  11.8109  35.8207 0007224 224.3406 147.0301  1.00274328 89639
INTELSAT 9 (IS-9)       
1 26451U 00043A   24345.24007667 -.00000002  00000+0  00000+0 0  9996
2 26451   9.1698  54.1641 0003516 199.8599 338.1238  1.00272453 38585
NSS-11                  
1 26554U 00059A   24345.57855345  .00000041  00000+0  00000+0 0  9999
2 26554   0.6899  87.7845 0003053 172.4884 203.8089  1.00268978 35740
USA 153                 
1 26575U 00065A   24345.52063174 -.00000316  00000+0  00000+0 0  9991
2 26575  10.6623  39.7414 0003319 244.0664 117.7222  1.00265324 26064
AMC-6                   
1 26580U 00067A   24345.50952212  .00000105  00000+0  00000+0 0  9992
2 26580   0.0839  81.3689 0003359 172.6853 234.0165  1.00269938 88342
INTELSAT 1R (IS-1R)     
1 26608U 00072A   24345.35497147  .00000077  00000+0  00000+0 0  9991
2 26608   6.6925  70.8074 0007964 202.6010 174.5066  0.98973830 35751
USA 157 (MILSTAR-2 2)   
1 26715U 01009A   24345.37237580  .00000119  00000+0  00000+0 0  9993
2 26715  10.9339  22.9406 0041001 174.8677 225.8902  1.00277206 27391
INTELSAT 10 (IS-10)     
1 26766U 01019A   24344.82014497  .00000005  00000+0  00000+0 0  9993
2 26766   7.7453  64.9058 0004497 200.4229 175.0667  1.00271701 40061
INTELSAT 901 (IS-901)   
1 26824U 01024A   24345.43868718 -.00000186  00000+0  00000+0 0  9996
2 26824   0.0449  92.6376 0001303 203.1134 274.3462  1.00269056 17437
USA 159 (DSP 21)        
1 26880U 01033A   24345.49493824 -.00000290  00000+0  00000+0 0  9992
2 26880  12.2605  20.1680 0001724 251.9543 296.5994  1.00267115 27413
INTELSAT 902 (IS-902)   
1 26900U 01039A   24345.51177316 -.00000268  00000+0  00000+0 0  9994
2 26900   4.7120  78.5257 0005140 187.2994 308.0287  1.00274606 85149
USA 164 (MILSTAR-2 3)   
1 27168U 02001A   24345.31100993  .00000107  00000+0  00000+0 0  9997
2 27168  10.5185  24.9767 0097356   2.6358 182.8513  1.00268203 27408
INTELSAT 904 (IS-904)   
1 27380U 02007A   24345.15848750 -.00000200  00000+0  00000+0 0  9996
2 27380   5.5255  75.7915 0003261 192.5863 198.5580  1.00269706 46214
DIRECTV 5 (TEMPO 1)     
1 27426U 02023A   24345.47067025 -.00000041  00000+0  00000+0 0  9991
2 27426   3.4555  82.2438 0003594 185.7195 231.0612  1.00271543 82579
INTELSAT 905 (IS-905)   
1 27438U 02027A   24345.15944318 -.00000170  00000+0  00000+0 0  9995
2 27438   5.3522  76.4317 0002788 178.1760 217.6893  1.00271214 45818
GALAXY 3C (G-3C)        
1 27445U 02030A   24345.50282446 -.00000136  00000+0  00000+0 0  9995
2 27445   2.3135  85.0280 0002788  71.5162   9.3484  1.00270164 40944
INTELSAT 906 (IS-906)   
1 27513U 02041A   24345.39146133  .00000029  00000+0  00000+0 0  9992
2 27513   4.3892  79.7423 0006625 182.4501  22.4755  1.00271434 81475
TDRS 10                 
1 27566U 02055A   24345.53208456  .00000096  00000+0  00000+0 0  9992
2 27566   9.9002  44.0732 0005112 276.1652 139.9356  1.00268376 80687
NIMIQ 2                 
1 27632U 02062A   24345.50161685 -.00000056  00000+0  00000+0 0  9990
2 27632   8.1472  62.5177 0007031 196.4772 252.1250  1.00271118 38637
USA 167                 
1 27691U 03008A   24345.33215154  .00000016  00000+0  00000+0 0  9993
2 27691   9.8515  48.1180 0003581 242.4151 146.7830  1.00269691  1221
USA 169 (MILSTAR-2 4)   
1 27711U 03012A   24345.51104185 -.00000187  00000+0  00000+0 0  9992
2 27711  11.5015  34.1069 0096073   4.5547  17.1881  1.00271730 27406
ASIASAT 4               
1 27718U 03014A   24345.62127712 -.00000207  00000+0  00000+0 0  9997
2 27718   3.2834  82.7309 0004060 179.8260 188.4881  1.00270292 39754
HELLAS-SAT 2            
1 27811U 03020A   24345.01943196 -.00000069  00000+0  00000+0 0  9999
2 27811   5.9654  74.4595 0010109 183.2117 178.5617  1.00270804 37296
THURAYA-2               
1 27825U 03026A   24345.29979981  .00000137  00000+0  00000+0 0  9996
2 27825   7.9787  33.8314 0003829 273.0523 284.5703  1.00273659 78793
OPTUS C1                
1 27831U 03028B   24345.63170722 -.00000137  00000+0  00000+0 0  9990
2 27831   5.4937  76.0832 0006232 184.4584 202.4364  1.00272028 47514
GALAXY 23 (G-23)        
1 27854U 03034A   24345.56044890  .00000028  00000+0  00000+0 0  9998
2 27854   1.7633  86.6899 0002831 182.5779 251.3895  1.00272131 78192
USA 170                 
1 27875U 03040A   24344.88322024  .00000139  00000+0  00000+0 0  9993
2 27875   9.3148  52.9520 0001467 204.1372 164.0023  1.00273652 26073
GALAXY 13 (HORIZONS-1)  
1 27954U 03044A   24345.49187750  .00000149  00000+0  00000+0 0  9999
2 27954   0.0116  47.4710 0000057 125.9976 293.3312  1.00270939 41022
YAMAL 202               
1 28089U 03053A   24345.56234267 -.00000065  00000+0  00000+0 0  9991
2 28089   4.9397  77.6438 0006416 177.3431 190.7371  1.00270709 77131
UFO 11 (USA 174)        
1 28117U 03057A   24345.55222870 -.00000089  00000+0  00000+0 0  9999
2 28117   8.3468  36.1863 0004327 220.8438  96.6070  1.00273425 76892
USA 176 (DSP 22)        
1 28158U 04004A   24345.13452369 -.00000211  00000+0  00000+0 0  9996
2 28158  11.3016  29.9081 0001237 277.7239 267.5311  1.00270589 27373
ABS-4 (MOBISAT-1)       
1 28184U 04007A   24345.39085316  .00000055  00000+0  00000+0 0  9995
2 28184   4.6333  78.7313 0007246 187.4757  15.0968  1.00269921 46785
EUTELSAT 7A             
1 28187U 04008A   24345.49404951  .00000118  00000+0  00000+0 0  9990
2 28187   4.4181  78.5880 0004747 187.8060 211.9809  1.00273495 75805
AMC-11                  
1 28252U 04017A   24345.50223792 -.00000033  00000+0  00000+0 0  9994
2 28252   0.0197 333.1613 0003104 294.7569 241.5139  1.00269899 75324
INTELSAT 10-02          
1 28358U 04022A   24345.55518390  .00000005  00000+0  00000+0 0  9991
2 28358   0.0185  14.0962 0000985 269.9252 354.6645  1.00270015 75002
